{
  "properties": {
    "path": "brands/office/telecommunication",
    "exclude": {
      "generic": [
        "^telecommunication$",
        "^مخابرات$"
      ]
    }
  },
  "items": [
    {
      "displayName": "ACTEL",
      "id": "actel-c9e0b0",
      "locationSet": {"include": ["dz"]},
      "tags": {
        "brand": "ACTEL",
        "name": "ACTEL",
        "office": "telecommunication"
      }
    },
    {
      "displayName": "Antik Telecom",
      "id": "antiktelecom-dd32b3",
      "locationSet": {"include": ["sk"]},
      "tags": {
        "brand": "Antik Telecom",
        "brand:wikidata": "Q30297477",
        "brand:wikipedia": "sk:Antik Telecom",
        "name": "Antik Telecom",
        "office": "telecommunication"
      }
    },
    {
      "displayName": "Azercell",
      "id": "azercell-898395",
      "locationSet": {"include": ["az"]},
      "tags": {
        "brand": "Azercell",
        "brand:wikidata": "Q2639931",
        "brand:wikipedia": "az:Azercell",
        "name": "Azercell",
        "office": "telecommunication"
      }
    },
    {
      "displayName": "Beeline",
      "id": "beeline-9919f7",
      "locationSet": {
        "include": [
          "am",
          "au",
          "ge",
          "kg",
          "kz",
          "la",
          "ru",
          "ua",
          "vn"
        ]
      },
      "tags": {
        "brand": "Beeline",
        "brand:wikidata": "Q402880",
        "brand:wikipedia": "en:Beeline (brand)",
        "name": "Beeline",
        "office": "telecommunication"
      }
    },
    {
      "displayName": "Celcom",
      "id": "celcom-bebb67",
      "locationSet": {"include": ["my"]},
      "tags": {
        "alt_name": "Celcom Axiata Berhad",
        "brand": "Celcom",
        "brand:wikidata": "Q836827",
        "brand:wikipedia": "en:Celcom",
        "name": "Celcom",
        "office": "telecommunication"
      }
    },
    {
      "displayName": "CH L3T",
      "id": "chl3t-d4bcbe",
      "locationSet": {"include": ["001"]},
      "tags": {
        "brand": "CH L3T",
        "name": "CH L3T",
        "office": "telecommunication"
      }
    },
    {
      "displayName": "China Mobile",
      "id": "chinamobile-118b3c",
      "locationSet": {"include": ["cn", "hk"]},
      "tags": {
        "brand": "中国移动",
        "brand:en": "China Mobile",
        "brand:wikidata": "Q741618",
        "brand:wikipedia": "zh:中国移动",
        "brand:zh": "中国移动",
        "name": "中国移动",
        "office": "telecommunication"
      }
    },
    {
      "displayName": "China Telecom",
      "id": "chinatelecom-d026e9",
      "locationSet": {"include": ["cn"]},
      "tags": {
        "brand": "中国电信",
        "brand:en": "China Telecom",
        "brand:wikidata": "Q1073540",
        "brand:wikipedia": "zh:中国电信",
        "brand:zh": "中国电信",
        "name": "中国电信",
        "office": "telecommunication"
      }
    },
    {
      "displayName": "China Unicom",
      "id": "chinaunicom-118b3c",
      "locationSet": {"include": ["cn", "hk"]},
      "tags": {
        "brand": "中国联通",
        "brand:en": "China Unicom",
        "brand:wikidata": "Q1068485",
        "brand:wikipedia": "zh:中国联通",
        "brand:zh": "中国联通",
        "name": "中国联通",
        "office": "telecommunication"
      }
    },
    {
      "displayName": "Digi Telecommunications",
      "id": "digitelecommunications-bebb67",
      "locationSet": {"include": ["my"]},
      "tags": {
        "alt_name": "Digi",
        "brand": "Digi Telecommunications",
        "brand:wikidata": "Q3268530",
        "brand:wikipedia": "en:Digi Telecommunications",
        "name": "Digi Telecommunications",
        "office": "telecommunication"
      }
    },
    {
      "displayName": "ETECSA",
      "id": "etecsa-0b19c8",
      "locationSet": {"include": ["cu"]},
      "tags": {
        "brand": "ETECSA",
        "brand:wikidata": "Q490323",
        "brand:wikipedia": "es:Empresa de Telecomunicaciones de Cuba",
        "name": "ETECSA",
        "office": "telecommunication",
        "official_name": "Empresa de Telecomunicaciones de Cuba"
      }
    },
    {
      "displayName": "Indosat Ooredoo",
      "id": "indosatooredoo-89d943",
      "locationSet": {"include": ["id"]},
      "tags": {
        "alt_name": "Indosat",
        "brand": "Indosat Ooredoo",
        "brand:wikidata": "Q2393592",
        "brand:wikipedia": "id:Indosat Ooredoo",
        "name": "Indosat Ooredoo",
        "office": "telecommunication"
      }
    },
    {
      "displayName": "Kcell",
      "id": "kcell-4679e0",
      "locationSet": {"include": ["kz"]},
      "tags": {
        "brand": "Kcell",
        "brand:wikidata": "Q1737636",
        "brand:wikipedia": "en:Kcell",
        "name": "Kcell",
        "office": "telecommunication"
      }
    },
    {
      "displayName": "Maxis Communications",
      "id": "maxiscommunications-bebb67",
      "locationSet": {"include": ["my"]},
      "tags": {
        "alt_name": "Maxis",
        "brand": "Maxis Communications",
        "brand:wikidata": "Q2627330",
        "brand:wikipedia": "en:Maxis Communications",
        "name": "Maxis Communications",
        "office": "telecommunication"
      }
    },
    {
      "displayName": "NTT",
      "id": "ntt-54abba",
      "locationSet": {"include": ["jp"]},
      "tags": {
        "alt_name": "エヌ・ティ・ティ",
        "brand": "NTT",
        "brand:wikidata": "Q1054787",
        "brand:wikipedia": "en:Nippon Telegraph and Telephone",
        "name": "NTT",
        "office": "telecommunication",
        "official_name": "日本電信電話",
        "official_name:en": "Nippon Telegraph and Telephone",
        "official_name:ja": "日本電信電話",
        "official_name:ja-Latn": "Nippon Denshin Denwa"
      }
    },
    {
      "displayName": "R",
      "id": "r-b26dcd",
      "locationSet": {"include": ["es"]},
      "tags": {
        "brand": "R",
        "brand:wikidata": "Q3326234",
        "brand:wikipedia": "gl:R (telecomunicacións)",
        "name": "R",
        "office": "telecommunication"
      }
    },
    {
      "displayName": "Telkomsel",
      "id": "telkomsel-89d943",
      "locationSet": {"include": ["id"]},
      "tags": {
        "brand": "Telkomsel",
        "brand:wikidata": "Q1786124",
        "brand:wikipedia": "id:Telkomsel",
        "name": "Telkomsel",
        "office": "telecommunication"
      }
    },
    {
      "displayName": "U Mobile",
      "id": "umobile-bebb67",
      "locationSet": {"include": ["my"]},
      "tags": {
        "brand": "U Mobile",
        "brand:wikidata": "Q7876226",
        "brand:wikipedia": "en: U Mobile",
        "name": "U Mobile",
        "office": "telecommunication"
      }
    },
    {
      "displayName": "Ucom",
      "id": "ucom-2921eb",
      "locationSet": {"include": ["am"]},
      "matchNames": ["յուքոմ"],
      "tags": {
        "brand": "Ucom",
        "brand:wikidata": "Q13054189",
        "brand:wikipedia": "hy:Յուքոմ",
        "name": "Ucom",
        "office": "telecommunication"
      }
    },
    {
      "displayName": "XL Axiata",
      "id": "xlaxiata-89d943",
      "locationSet": {"include": ["id"]},
      "tags": {
        "alt_name": "XL",
        "brand": "XL Axiata",
        "brand:wikidata": "Q3482752",
        "brand:wikipedia": "id:XL Axiata",
        "name": "XL Axiata",
        "office": "telecommunication"
      }
    },
    {
      "displayName": "АТС",
      "id": "534afc-d4bcbe",
      "locationSet": {"include": ["001"]},
      "tags": {
        "brand": "АТС",
        "name": "АТС",
        "office": "telecommunication"
      }
    },
    {
      "displayName": "Билайн",
      "id": "beeline-212d09",
      "locationSet": {
        "include": ["ge", "kg", "kz", "ru", "ua"]
      },
      "tags": {
        "brand": "Билайн",
        "brand:en": "Beeline",
        "brand:ru": "Билайн",
        "brand:wikidata": "Q402880",
        "brand:wikipedia": "ru:Билайн",
        "name": "Билайн",
        "name:en": "Beeline",
        "name:ru": "Билайн",
        "office": "telecommunication"
      }
    },
    {
      "displayName": "زين السعودية",
      "id": "zainsaudiarabia-d23a06",
      "locationSet": {"include": ["sa"]},
      "matchNames": [
        "zain",
        "زين",
        "شركة الاتصالات المتنقلة السعودية",
        "شركة زين السعودية"
      ],
      "tags": {
        "brand": "زين السعودية",
        "brand:ar": "زين السعودية",
        "brand:en": "Zain Saudi Arabia",
        "brand:ja": "زين السعودية",
        "brand:wikidata": "Q12218575",
        "brand:wikipedia": "ar:زين السعودية",
        "name": "زين السعودية",
        "name:en": "Zain Saudi Arabia",
        "office": "telecommunication"
      }
    },
    {
      "displayName": "شركة اتحاد عذيب للاتصالات",
      "id": "etihadatheebtelecom-d23a06",
      "locationSet": {"include": ["sa"]},
      "matchNames": [
        "atheeb",
        "go",
        "جو",
        "عذيب",
        "عذيب للاتصالات"
      ],
      "tags": {
        "brand": "شركة اتحاد عذيب للاتصالات",
        "brand:ar": "شركة اتحاد عذيب للاتصالات",
        "brand:en": "Etihad Atheeb Telecom",
        "brand:ja": "شركة اتحاد عذيب للاتصالات",
        "brand:wikidata": "Q5404584",
        "brand:wikipedia": "ar:شركة اتحاد عذيب للاتصالات",
        "name": "شركة اتحاد عذيب للاتصالات",
        "name:en": "Etihad Atheeb Telecom",
        "office": "telecommunication"
      }
    },
    {
      "displayName": "شركة الاتصالات السعودية",
      "id": "sauditelecomcompany-d23a06",
      "locationSet": {"include": ["sa"]},
      "matchNames": [
        "stc",
        "إس تي سي",
        "الاتصالات السعودية"
      ],
      "tags": {
        "brand": "شركة الاتصالات السعودية",
        "brand:ar": "شركة الاتصالات السعودية",
        "brand:en": "Saudi Telecom Company",
        "brand:ja": "شركة الاتصالات السعودية",
        "brand:wikidata": "Q1535171",
        "brand:wikipedia": "ar:إس تي سي السعودية",
        "name": "شركة الاتصالات السعودية",
        "name:en": "Saudi Telecom Company",
        "office": "telecommunication"
      }
    },
    {
      "displayName": "موبايلي",
      "id": "mobily-d23a06",
      "locationSet": {"include": ["sa"]},
      "matchNames": [
        "etihad etisalat company",
        "mobily telecom",
        "إتحاد إتصالات",
        "شركة اتحاد اتصالات"
      ],
      "tags": {
        "brand": "موبايلي",
        "brand:ar": "موبايلي",
        "brand:en": "Mobily",
        "brand:ja": "موبايلي",
        "brand:wikidata": "Q6887331",
        "brand:wikipedia": "ar:موبايلي",
        "name": "موبايلي",
        "name:en": "Mobily",
        "office": "telecommunication"
      }
    }
  ]
}
